STARLINK-6356           
1 57363U 23099AM  24049.87925377  .00000038  00000+0  17863-4 0  9993
2 57363  43.0027 350.3746 0001086 264.1185  95.9534 15.02547427 33471
STARLINK-6338           
1 57364U 23099AN  24049.87148061  .00000806  00000+0  74717-4 0  9995
2 57364  43.0050 350.3172 0001244 278.9660  81.1042 15.02537761 33479
STARLINK-5007           
1 57365U 23099AP  24049.86259603  .00003150  00000+0  24804-3 0  9996
2 57365  43.0018 350.2413 0000416 312.1031  47.9776 15.02546361 33474
STARLINK-6174           
1 57366U 23099AQ  24049.86482144  .00005037  00000+0  38764-3 0  9991
2 57366  43.0025 350.2684 0001083 256.8232 103.2489 15.02537853 33474
STARLINK-6215           
1 57367U 23099AR  24049.85952461  .00000263  00000+0  34570-4 0  9993
2 57367  43.0030 337.1923 0000940 273.2210  86.8525 15.02534447 34374
STARLINK-6218           
1 57368U 23099AS  24049.92574688  .00001581  00000+0  13208-3 0  9991
2 57368  43.0028 349.8636 0001259 266.6931  93.3767 15.02539878 33488
STARLINK-6168           
1 57369U 23099AT  24049.86814927  .00001532  00000+0  12847-3 0  9992
2 57369  42.9968 350.2867 0001578 321.8643  38.2088 15.02542203 33479
STARLINK-5353           
1 57370U 23099AU  24049.91909008  .00000876  00000+0  79921-4 0  9992
2 57370  43.0027 349.8111 0001107 277.1658  82.9059 15.02535548 33481
STARLINK-6032           
1 57371U 23099AV  24049.86148613  .00002403  00000+0  19283-3 0  9996
2 57371  43.0025 350.2423 0000834 287.6615  72.4136 15.02545695 33470
STARLINK-5975           
1 57372U 23099AW  24049.84483810  .00002248  00000+0  18142-3 0  9996
2 57372  43.0012 350.1074 0000781 282.4504  77.6251 15.02542784 33470
STARLINK-6370           
1 57373U 23099AX  24049.19115829  .00005685  00000+0  43541-3 0  9996
2 57373  43.0014 353.8088 0001217 266.5067  93.5636 15.02550248 33377
STARLINK-6369           
1 57374U 23099AY  24049.49061973  .00000598  00000+0  59308-4 0  9997
2 57374  43.0049 339.5954 0001223 259.0735 100.9970 15.02542924 33562
STARLINK-6363           
1 57375U 23099AZ  24049.91797163 -.00003012  00000+0 -20796-3 0  9996
2 57375  43.0007 349.8018 0001263 282.4145  77.6556 15.02535412 33486
STARLINK-6367           
1 57376U 23099BA  24049.84150686  .00000702  00000+0  67021-4 0  9996
2 57376  43.0030 350.0897 0000875 251.6764 108.3983 15.02541363 33472
STARLINK-6358           
1 57377U 23099BB  24049.84594831  .00003809  00000+0  29685-3 0  9995
2 57377  43.0029 350.1221 0001451 252.8438 107.2246 15.02542378 33472
STARLINK-6364           
1 57378U 23099BC  24049.46757399  .00001665  00000+0  13826-3 0  9992
2 57378  43.0066 326.4301 0001238 257.4843 102.5861 15.02542146 34456
STARLINK-6361           
1 57379U 23099BD  24049.84261336  .00003122  00000+0  24597-3 0  9993
2 57379  43.0000 350.0990 0000427 255.4433 104.6362 15.02547705 33470
STARLINK-6366           
1 57380U 23099BE  24049.73237771  .00001271  00000+0  10915-3 0  9991
2 57380  43.0025 324.9691 0001244 263.8242  96.2458 15.02535693 34483
STARLINK-6371           
1 57381U 23099BF  24049.78971821  .00001994  00000+0  16263-3 0  9992
2 57381  43.0025 337.5412 0000920 275.1900  84.8838 15.02538064 34358
STARLINK-30240          
1 57404U 23102A   24049.88674263 -.00006046  00000+0 -43301-3 0  9992
2 57404  43.0015   3.3401 0001552 278.0643  82.0024 15.02526095 33444
STARLINK-30192          
1 57405U 23102B   24049.88341261  .00001399  00000+0  11860-3 0  9991
2 57405  42.9975   3.3003 0000235  59.4238 300.6627 15.02544473 33442
STARLINK-30195          
1 57406U 23102C   24049.88007226  .00011901  00000+0  89379-3 0  9992
2 57406  43.0050   3.2900 0001663 250.1990 109.8673 15.02568795 33448
STARLINK-30207          
1 57407U 23102D   24049.84705956  .00007637  00000+0  57961-3 0  9997
2 57407  43.0026 350.1213 0000457 247.0157 113.0637 15.02546515 33604
STARLINK-30205          
1 57408U 23102E   24049.87009766  .00027157  00000+0  20169-2 0  9995
2 57408  43.0026   3.2189 0000969 279.6972  80.3761 15.02549304 33442
STARLINK-30222          
1 57409U 23102F   24049.86010519  .00006933  00000+0  52758-3 0  9992
2 57409  42.9994   3.1458 0000514 226.1085 133.9715 15.02550386 33447
STARLINK-30172          
1 57410U 23102G   24049.86676777  .00008642  00000+0  65404-3 0  9999
2 57410  43.0036   3.1768 0001242 268.5934  91.4766 15.02533183 33444
STARLINK-30214          
1 57411U 23102H   24049.90327958  .00002245  00000+0  18117-3 0  9991
2 57411  43.0033   2.6171 0000751 265.4597  94.6159 15.02543362 33406
STARLINK-30182          
1 57412U 23102J   24049.86343615  .00023171  00000+0  17235-2 0  9995
2 57412  42.9989   3.1677 0000351 265.4463  94.6339 15.02561919 33442
STARLINK-30191          
1 57413U 23102K   24049.85344609  .00006580  00000+0  50154-3 0  9992
2 57413  43.0015   3.0936 0000948 266.0717  94.0017 15.02549024 33443
STARLINK-30193          
1 57414U 23102L   24049.92325483 -.00000532  00000+0 -24330-4 0  9991
2 57414  43.0040   2.7581 0001432 274.4086  85.6592 15.02550697 33458
STARLINK-30208          
1 57415U 23102M   24049.91660031  .00001556  00000+0  13024-3 0  9994
2 57415  43.0007   2.7033 0000971 275.5933  84.4798 15.02536245 33407
STARLINK-30224          
1 57416U 23102N   24049.91327687  .00013246  00000+0  99333-3 0  9998
2 57416  43.0051   2.6811 0000909 260.6944  99.3796 15.02552937 33452
STARLINK-30043          
1 57417U 23102P   24049.90659766 -.00003354  00000+0 -23335-3 0  9994
2 57417  43.0006   2.6304 0000595 287.1852  72.8925 15.02537809 33454
STARLINK-30221          
1 57418U 23102Q   24049.90993563  .00001897  00000+0  15544-3 0  9992
2 57418  43.0021   2.6536 0000974 257.9860 102.0873 15.02544214 33450
STARLINK-30189          
1 57430U 23105A   24049.87652122  .00011439  00000+0  86029-3 0  9997
2 57430  43.0019  16.4032 0000736 281.2850  78.7910 15.02543271 32722
STARLINK-30170          
1 57431U 23105B   24049.60727628  .00005224  00000+0  40144-3 0  9996
2 57431  43.0018  17.8225 0001185 268.3173  91.7534 15.02538526 32739
STARLINK-30188          
1 57432U 23105C   24049.60393451  .00000728  00000+0  68891-4 0  9994
2 57432  43.0025  17.7973 0000673 290.2043  69.8727 15.02553931 32690
STARLINK-30105          
1 57433U 23105D   24049.91667824  .00006659  00000+0  23066-3 0  9990
2 57433  43.0040 343.1900 0010764 189.9992 326.5281 15.30367840  5908
STARLINK-30102          
1 57434U 23105E   24049.92967533  .00005747  00000+0  44013-3 0  9994
2 57434  43.0036  15.9385 0001223 265.8110  94.2593 15.02537709 32728
STARLINK-30180          
1 57435U 23105F   24049.60062053  .00001557  00000+0  13033-3 0  9996
2 57435  43.0035  17.7693 0000892 265.5276  94.5464 15.02537852 32786
STARLINK-30183          
1 57436U 23105G   24049.59393945  .00004701  00000+0  36258-3 0  9990
2 57436  43.0040  17.7193 0000222 253.1652 106.9166 15.02559831 32739
STARLINK-30237          
1 57437U 23105H   24049.18843264  .00004397  00000+0  34027-3 0  9993
2 57437  43.0045  19.8341 0000912 249.5940 110.4804 15.02544254 32662
STARLINK-30158          
1 57438U 23105J   24049.92301756 -.00000950  00000+0 -55249-4 0  9994
2 57438  43.0031  15.8908 0001033 276.9583  83.1142 15.02540469 32772
STARLINK-30173          
1 57439U 23105K   24049.87668686  .00007142  00000+0  54331-3 0  9995
2 57439  43.0036   2.8226 0001135 272.9098  87.1614 15.02532068 32928
STARLINK-30159          
1 57440U 23105L   24049.38453495  .00023287  00000+0  17330-2 0  9998
2 57440  43.0034  18.7267 0000237 316.9420  43.1404 15.02540770 32534
STARLINK-30160          
1 57441U 23105M   24049.91302291 -.00002975  00000+0 -20517-3 0  9990
2 57441  43.0016  15.8174 0000628 143.0388 217.0498 15.02548667 32613
STARLINK-30146          
1 57442U 23105N   24049.90970393  .00003012  00000+0  23795-3 0  9996
2 57442  43.0041  15.7865 0001658 257.5903 102.4754 15.02537920 32832
STARLINK-30197          
1 57443U 23105P   24049.90635988  .00002366  00000+0  19014-3 0  9995
2 57443  43.0009  15.7609 0000645 245.7784 114.2991 15.02540827 32771
STARLINK-30181          
1 57444U 23105Q   24049.89304835  .00006019  00000+0  46011-3 0  9994
2 57444  43.0028  15.6643 0000780 245.3565 114.7196 15.02550336 32838
STARLINK-30215          
1 57445U 23105R   24049.88972080  .00029358  00000+0  21780-2 0  9993
2 57445  43.0037  15.6443 0000465 246.1087 113.9706 15.02558026 32613
STARLINK-30162          
1 57446U 23105S   24049.89000721  .00005380  00000+0  41304-3 0  9993
2 57446  43.0019   2.9057 0001368 261.1529  98.9158 15.02534364 32921
STARLINK-30178          
1 57447U 23105T   24049.63047047  .00014184  00000+0  10630-2 0  9997
2 57447  43.0025  17.1328 0000632 257.8020 102.2751 15.02534438 32738
STARLINK-30196          
1 57448U 23105U   24049.88639053  .00001729  00000+0  14303-3 0  9992
2 57448  43.0018  15.6140 0000737 271.8550  88.2207 15.02540078 32619
STARLINK-30225          
1 57449U 23105V   24049.88306191  .00001697  00000+0  14066-3 0  9997
2 57449  43.0022  15.5888 0000597 257.2073 102.8702 15.02541746 32835
STARLINK-30217          
1 57450U 23105W   24049.87337090  .00008831  00000+0  66788-3 0  9995
2 57450  43.0009   2.8264 0001177 258.2111 101.8600 15.02541008 32925
STARLINK-30216          
1 57451U 23105X   24049.94620994  .00019246  00000+0  14356-2 0  9997
2 57451  43.0034  15.2181 0001223 262.4113  97.6590 15.02542855 32629
STARLINK-30165          
1 57457U 23107A   24049.30979778 -.00000734  00000+0 -39316-4 0  9991
2 57457  43.0015  96.5908 0001015 278.5136  81.5591 15.02529922 32224
STARLINK-30140          
1 57458U 23107B   24049.83828864  .00012675  00000+0  95135-3 0  9994
2 57458  43.0010  93.6742 0001036 275.0638  85.0086 15.02547856 32310
STARLINK-30185          
1 57459U 23107C   24049.83494415  .00010064  00000+0  75885-3 0  9996
2 57459  42.9962  93.6510 0001316 285.5929  74.4767 15.02544840 32316
